COSMO-SKYMED 4          
1 37216U 10060A   24361.45233035  .00001518  00000+0  19715-3 0  9997
2 37216  97.8861 181.8321 0001340  83.5680 276.5686 14.82170733764915
O/OREOS (USA 219)       
1 37224U 10062C   24361.28408506  .00005389  00000+0  56625-3 0  9997
2 37224  71.9707 215.5114 0014702   2.5028 357.6211 14.89783573 36415
ELEKTRO-L 1 (GOMS 2)    
1 37344U 11001A   24360.95630690 -.00000049  00000+0  00000+0 0  9999
2 37344   8.4557  59.8037 0003591  21.7643 350.4275  1.00252635 51090
RESOURCESAT-2           
1 37387U 11015A   24361.78765263  .00000528  00000+0  25994-3 0  9992
2 37387  98.5546  61.9508 0003239 278.7287  81.3524 14.21701271710359
YOUTHSAT                
1 37388U 11015B   24361.77809425  .00000689  00000+0  31008-3 0  9992
2 37388  98.3113 351.1169 0015575 118.3314  54.8029 14.25209509711606
APRIZESAT 6             
1 37793U 11044F   24361.27286187  .00002639  00000+0  39029-3 0  9991
2 37793  98.2783 249.1983 0044626   6.6528 119.6923 14.75437997717937
JUGNU                   
1 37839U 11058B   24361.66200191  .00000873  00000+0  31708-3 0  9995
2 37839  19.9627 333.4007 0018470 260.7068 256.6499 14.13462180682989
SRMSAT                  
1 37841U 11058D   24361.52552552  .00000738  00000+0  25796-3 0  9994
2 37841  19.9724  73.2794 0011954  49.7692  72.2761 14.11319486681767
SUOMI NPP               
1 37849U 11061A   24361.81833056  .00000304  00000+0  16497-3 0  9996
2 37849  98.7424 297.0523 0002193  69.8975 290.2437 14.19524868682195
YAOGAN-12               
1 37875U 11066B   24361.82892881  .00017312  00000+0  72410-3 0  9996
2 37875  97.1947  53.7765 0004947 335.1158  24.9840 15.23635004730750
ZIYUAN 3-1 (ZY 3-1)     
1 38046U 12001A   24361.78371182  .00027303  00000+0  58832-3 0  9991
2 38046  97.2174  60.7410 0004729 151.1509 209.0003 15.44554635720527
BEIDOU-2 M4             
1 38251U 12018B   24361.09211958 -.00000087  00000+0  00000+0 0  9996
2 38251  56.1075 322.1996 0015798 274.0581  85.7545  1.86232169 86279
ARIRANG-3 (KOMPSAT-3)   
1 38338U 12025B   24361.84940914  .00001915  00000+0  37788-3 0  9991
2 38338  98.2872 308.6566 0010226   5.0523 355.0780 14.63594040672912
HORYU-2                 
1 38340U 12025D   24361.26258639  .00008687  00000+0  10173-2 0  9997
2 38340  98.1695 105.3483 0010015 133.3126 226.8924 14.85247172668709
CSSWE                   
1 38761U 12048D   24361.43429860  .00024510  00000+0  10590-2 0  9990
2 38761  64.6691  74.9456 0121262 317.3250  41.8501 15.15965989 34148
CP5                     
1 38763U 12048F   24361.53414816  .00017770  00000+0  89033-3 0  9997
2 38763  64.6585 106.4274 0130948 323.6704  35.5578 15.10216665 35089
METOP-B                 
1 38771U 12049A   24361.82465345  .00000405  00000+0  20527-3 0  9992
2 38771  98.6043  54.4739 0001836 105.2268 254.9113 14.21392945636912
SJ-9A                   
1 38860U 12056A   24361.80060705  .00003429  00000+0  42205-3 0  9994
2 38860  97.6086 345.0882 0025863 223.1985 136.7201 14.83363195659066
COSMOS 2484             
1 39059U 13001C   24361.84554654  .00000049  00000+0  27712-3 0  9992
2 39059  82.5008 196.0036 0026721 125.1194 235.2396 12.42912884542010
SARAL                   
1 39086U 13009A   24361.57926223  .00000433  00000+0  17565-3 0  9997
2 39086  98.5482 184.0900 0002940  81.4401 278.7116 14.32616389618627
AAUSAT 3                
1 39087U 13009B   24361.77289001  .00002239  00000+0  74353-3 0  9990
2 39087  98.3634 187.3456 0012310  29.6137 330.5745 14.38660996620187
STRAND-1                
1 39090U 13009E   24361.75779221  .00001101  00000+0  38927-3 0  9994
2 39090  98.3766 184.8135 0009507  42.6106 317.5816 14.36539667619908
BRITE-AUSTRIA           
1 39091U 13009F   24361.77921513  .00000718  00000+0  26111-3 0  9995
2 39091  98.3817 184.1070 0011135  49.0754 311.1395 14.36122621619918
UNIBRITE                
1 39092U 13009G   24361.74347822  .00000716  00000+0  26100-3 0  9994
2 39092  98.3856 184.0465 0010008  45.9916 314.2093 14.35994675619859
AIST-2 (RS-43)          
1 39133U 13015D   24361.71803127  .00010013  00000+0  50243-3 0  9995
2 39133  64.8697 203.8255 0024921 299.0125  60.8504 15.17496474642533
GAOFEN-1                
1 39150U 13018A   24361.79733074  .00002341  00000+0  34262-3 0  9996
2 39150  97.9710  71.9032 0018430 196.2007 163.8616 14.76490068628985
NEE-01 PEGASO           
1 39151U 13018B   24361.30643784  .00007273  00000+0  78160-3 0  9996
2 39151  98.0531 120.9322 0014917 129.7222 230.5312 14.88776718630533
TURKSAT-3USAT           
1 39152U 13018C   24361.69826917  .00008976  00000+0  91884-3 0  9999
2 39152  97.8199  85.1538 0014655  87.9153 272.3743 14.90659818630850
CUBEBUG-1 (CAPITAN BETO)
1 39153U 13018D   24361.78746710  .00010723  00000+0  10829-2 0  9994
2 39153  98.0956 131.4091 0014310 119.8130 240.4512 14.91165784630879
PROBA-V                 
1 39159U 13021A   24361.55044903  .00000304  00000+0  15171-3 0  9994
2 39159  98.3124 357.4049 0002996 267.8175  92.2662 14.23404039604625
ESTCUBE 1               
1 39161U 13021C   24361.62520435  .00005150  00000+0  71252-3 0  9990
2 39161  97.8067  62.2423 0007972 334.3386  25.7429 14.78446567625546
ARIRANG-5 (KOMPSAT-5)   
1 39227U 13042A   24361.77845808  .00004831  00000+0  34917-3 0  9998
2 39227  97.6162 184.9888 0003642 139.1746 220.9754 15.04514258623115
GONETS-M 5              
1 39249U 13048A   24361.54963495  .00000031  00000+0  15112-3 0  9990
2 39249  82.4829 318.5245 0015703 309.1490  50.8194 12.42855528512098
GONETS-M 7              
1 39251U 13048C   24361.84713600  .00000040  00000+0  21765-3 0  9998
2 39251  82.4897 320.9824 0016506 309.4977  50.4643 12.42888367512262
FENGYUN 3C              
1 39260U 13052A   24361.89198459  .00000355  00000+0  19919-3 0  9994
2 39260  98.4407 351.4117 0011939 127.4283 232.7981 14.16372777582604
CASSIOPE                
1 39265U 13055A   24361.53062042  .00052220  00000+0  94046-3 0  9993
2 39265  80.9472 339.3933 0441468  23.6192 338.4613 14.84841460586782
APRIZESAT 7             
1 39416U 13066A   24361.41535655  .00003821  00000+0  40637-3 0  9995
2 39416  97.6983 314.7401 0037090 190.5310 169.5135 14.89045909601124
ZACUBE-1 (TSHEPISOSAT)  
1 39417U 13066B   24361.43037919  .00010923  00000+0  10198-2 0  9997
2 39417  97.7593 313.8966 0044726 242.2443 117.4238 14.93589047600233
APRIZESAT 8             
1 39425U 13066K   24361.40217030  .00003732  00000+0  42967-3 0  9997
2 39425  97.7553 308.4039 0046207 254.3902 105.2211 14.85566754599761
CINEMA-3 (KHUSAT-2)     
1 39426U 13066L   24361.28302379  .00003555  00000+0  49263-3 0  9994
2 39426  97.8471 277.2326 0095029 151.5785 209.0655 14.75502488595312
TRITON-1                
1 39427U 13066M   24361.78025075  .00006606  00000+0  87015-3 0  9992
2 39427  97.8414 273.8980 0097338 179.7019 180.4266 14.77150619594805
DELFI-N3XT              
1 39428U 13066N   24361.70647069  .00012886  00000+0  14380-2 0  9999
2 39428  97.8376 275.6710 0090692 180.9026 179.2039 14.84146646594764
GOMX-1                  
1 39430U 13066Q   24361.63620378  .00006062  00000+0  96621-3 0  9996
2 39430  97.7035 224.3208 0135750   0.4317 359.6981 14.66263981591225
BRITE-PL1 (LEM)         
1 39431U 13066R   24361.37110637  .00003010  00000+0  62191-3 0  9995
2 39431  97.7266 143.6424 0193413 243.8918 114.2263 14.49942914585957
ICUBE-1                 
1 39432U 13066S   24361.47293854  .00019258  00000+0  12175-2 0  9997
2 39432  97.5208 337.9883 0025670  41.0680 319.2475 15.08792231602865
HUMSAT-D                
1 39433U 13066T   24361.45731131  .00037395  00000+0  16582-2 0  9999
2 39433  97.4987 350.1164 0014742 352.4761   7.6252 15.21400547603857
VELOX-PII               
1 39438U 13066Y   24361.58774831  .00010067  00000+0  10771-2 0  9993
2 39438  97.8108 305.5674 0057903 321.2384  38.4685 14.87681258597745
FIRST-MOVE              
1 39439U 13066Z   24361.85045539  .00039569  00000+0  21790-2 0  9991
2 39439  97.7311 325.6820 0031800 196.8200 163.1979 15.13468298600966
CUBEBUG-2 (LO-74)       
1 39440U 13066AA  24361.40218748  .00011654  00000+0  12498-2 0  9998
2 39440  97.8331 301.5955 0065951   5.9548 354.2437 14.87177024596861
NEE-02 KRYSAOR          
1 39441U 13066AB  24361.55037107  .00007451  00000+0  88965-3 0  9996
2 39441  97.8411 296.6983 0072228  30.5080 330.0305 14.82638938596414
FUNCUBE-1 (AO-73)       
1 39444U 13066AE  24361.47587606  .00013137  00000+0  11000-2 0  9997
2 39444  97.7424 317.7368 0041990 218.5701 141.2519 14.97873715598839
HINCUBE                 
1 39445U 13066AF  24361.44817396  .00013294  00000+0  11283-2 0  9994
2 39445  97.7466 317.2623 0041484 221.6581 138.1479 14.97363414598744
UWE-3                   
1 39446U 13066AG  24361.38304753  .00010822  00000+0  10929-2 0  9996
2 39446  97.8039 307.7542 0055062 307.8070  51.8170 14.90091914597286
SMDC ONE 2.4            
1 39469U 13072H   24361.55542663  .00032968  00000+0  17431-2 0  9991
2 39469 120.4965 102.6958 0195486 154.7484 206.3283 15.00305136 36644
CP8 (IPEX)              
1 39471U 13072K   24361.45117846  .00021741  00000+0  12958-2 0  9990
2 39471 120.4719  74.1140 0208156 148.6886 212.6758 14.94871696 34441
COSMOS 2488             
1 39483U 13076A   24361.47453142  .00000042  00000+0  23401-3 0  9998
2 39483  82.4839 143.7999 0019519 185.0668 175.0217 12.42898823499095
COSMOS 2489             
1 39484U 13076B   24361.77071280  .00000057  00000+0  34195-3 0  9999
2 39484  82.4875 144.8317 0021577 185.9069 174.1760 12.42893612499389
COSMOS 2490             
1 39485U 13076C   24361.49906013  .00000045  00000+0  25441-3 0  9991
2 39485  82.4821 143.3006 0021271 201.1963 158.8237 12.42906635499080
AIST-1 (RS-41)          
1 39492U 13078C   24361.79876860  .00004717  00000+0  44673-3 0  9998
2 39492  82.4173  70.4873 0016304 276.0191  83.9171 14.93334490597294
